{
  "type": "FeatureCollection",
  "features": [
    {
      "type": "Feature",
      "properties": {
        "norad_id": 35915,
        "name": "IRIDIUM 33 DEB",
        "group": "iridium-33-debris",
        "lat": -53.98801400263728,
        "lon": 165.26145012378385,
        "alt_km": 630.9859642392084,
        "timestamp": "2025-12-18T17:50:15.340629+00:00",
        "meta_object_name": "IRIDIUM 33 DEB",
        "meta_object_id": "1997-051TY",
        "meta_epoch": "2025-12-15T17:25:35.441760",
        "meta_mean_motion": 14.80816607,
        "meta_eccentricity": 0.00112544,
        "meta_inclination": 86.3436,
        "meta_ra_of_asc_node": 341.593,
        "meta_arg_of_pericenter": 174.6839,
        "meta_mean_anomaly": 185.4504,
        "meta_ephemeris_type": 0,
        "meta_classification_type": "U",
        "meta_norad_cat_id": 35915,
        "meta_element_set_no": 999,
        "meta_rev_at_epoch": 8130,
        "meta_bstar": 0.0011378054,
        "meta_mean_motion_dot": 8.81e-05,
        "meta_mean_motion_ddot": 0,
        "tle_line1": "1 35915U 97051TY  25349.72610465  .00008810  00000+0  11378-2 0  9997",
        "tle_line2": "2 35915  86.3436 341.5930 0011254 174.6839 185.4504 14.80816607 81301"
      },
      "geometry": {
        "type": "Point",
        "coordinates": [
          165.26145012378385,
          -53.98801400263728
        ]
      }
    },
    {
      "type": "Feature",
      "properties": {
        "norad_id": 35918,
        "name": "IRIDIUM 33 DEB",
        "group": "iridium-33-debris",
        "lat": 68.57750171283752,
        "lon": -115.99103912303582,
        "alt_km": 699.3721296604635,
        "timestamp": "2025-12-18T17:50:15.340640+00:00",
        "meta_object_name": "IRIDIUM 33 DEB",
        "meta_object_id": "1997-051UB",
        "meta_epoch": "2025-12-16T12:39:39.180384",
        "meta_mean_motion": 14.5127814,
        "meta_eccentricity": 0.0027979,
        "meta_inclination": 86.4012,
        "meta_ra_of_asc_node": 74.1902,
        "meta_arg_of_pericenter": 157.398,
        "meta_mean_anomaly": 265.1439,
        "meta_ephemeris_type": 0,
        "meta_classification_type": "U",
        "meta_norad_cat_id": 35918,
        "meta_element_set_no": 999,
        "meta_rev_at_epoch": 85262,
        "meta_bstar": 0.00077323104,
        "meta_mean_motion_dot": 3.111e-05,
        "meta_mean_motion_ddot": 0,
        "tle_line1": "1 35918U 97051UB  25350.52753681  .00003111  00000+0  77323-3 0  9990",
        "tle_line2": "2 35918  86.4012  74.1902 0027979 157.3980 265.1439 14.51278140852625"
      },
      "geometry": {
        "type": "Point",
        "coordinates": [
          -115.99103912303582,
          68.57750171283752
        ]
      }
    },
    {
      "type": "Feature",
      "properties": {
        "norad_id": 35929,
        "name": "IRIDIUM 33 DEB",
        "group": "iridium-33-debris",
        "lat": -69.97631445362197,
        "lon": 139.91845723810354,
        "alt_km": 572.9829048125448,
        "timestamp": "2025-12-18T17:50:15.340650+00:00",
        "meta_object_name": "IRIDIUM 33 DEB",
        "meta_object_id": "1997-051UN",
        "meta_epoch": "2025-12-17T15:09:24.292224",
        "meta_mean_motion": 15.02734455,
        "meta_eccentricity": 0.00173872,
        "meta_inclination": 86.3329,
        "meta_ra_of_asc_node": 310.3099,
        "meta_arg_of_pericenter": 21.8082,
        "meta_mean_anomaly": 338.3888,
        "meta_ephemeris_type": 0,
        "meta_classification_type": "U",
        "meta_norad_cat_id": 35929,
        "meta_element_set_no": 999,
        "meta_rev_at_epoch": 87853,
        "meta_bstar": 0.0021011634,
        "meta_mean_motion_dot": 0.00028257,
        "meta_mean_motion_ddot": 0,
        "tle_line1": "1 35929U 97051UN  25351.63153116  .00028257  00000+0  21012-2 0  9993",
        "tle_line2": "2 35929  86.3329 310.3099 0017387  21.8082 338.3888 15.02734455878531"
      },
      "geometry": {
        "type": "Point",
        "coordinates": [
          139.91845723810354,
          -69.97631445362197
        ]
      }
    },
    {
      "type": "Feature",
      "properties": {
        "norad_id": 36011,
        "name": "IRIDIUM 33 DEB",
        "group": "iridium-33-debris",
        "lat": -52.492210860269225,
        "lon": 28.06458190744857,
        "alt_km": 765.5952322011481,
        "timestamp": "2025-12-18T17:50:15.340660+00:00",
        "meta_object_name": "IRIDIUM 33 DEB",
        "meta_object_id": "1997-051US",
        "meta_epoch": "2025-12-11T21:42:29.079072",
        "meta_mean_motion": 14.41326157,
        "meta_eccentricity": 0.0017563,
        "meta_inclination": 86.3411,
        "meta_ra_of_asc_node": 35.7829,
        "meta_arg_of_pericenter": 218.6873,
        "meta_mean_anomaly": 266.0791,
        "meta_ephemeris_type": 0,
        "meta_classification_type": "U",
        "meta_norad_cat_id": 36011,
        "meta_element_set_no": 999,
        "meta_rev_at_epoch": 64528,
        "meta_bstar": 0.00076231,
        "meta_mean_motion_dot": 2.489e-05,
        "meta_mean_motion_ddot": 0,
        "tle_line1": "1 36011U 97051US  25345.90450323  .00002489  00000+0  76231-3 0  9992",
        "tle_line2": "2 36011  86.3411  35.7829 0017563 218.6873 266.0791 14.41326157645287"
      },
      "geometry": {
        "type": "Point",
        "coordinates": [
          28.06458190744857,
          -52.492210860269225
        ]
      }
    },
    {
      "type": "Feature",
      "properties": {
        "norad_id": 36012,
        "name": "IRIDIUM 33 DEB",
        "group": "iridium-33-debris",
        "lat": 69.16343753963032,
        "lon": 115.7002775219961,
        "alt_km": 924.5185983116844,
        "timestamp": "2025-12-18T17:50:15.340670+00:00",
        "meta_object_name": "IRIDIUM 33 DEB",
        "meta_object_id": "1997-051UT",
        "meta_epoch": "2025-12-17T14:13:28.599168",
        "meta_mean_motion": 14.19148234,
        "meta_eccentricity": 0.02113779,
        "meta_inclination": 86.4407,
        "meta_ra_of_asc_node": 305.5764,
        "meta_arg_of_pericenter": 247.5973,
        "meta_mean_anomaly": 110.2701,
        "meta_ephemeris_type": 0,
        "meta_classification_type": "U",
        "meta_norad_cat_id": 36012,
        "meta_element_set_no": 999,
        "meta_rev_at_epoch": 65553,
        "meta_bstar": 0.0037873246,
        "meta_mean_motion_dot": 9.924e-05,
        "meta_mean_motion_ddot": 0,
        "tle_line1": "1 36012U 97051UT  25351.59269212  .00009924  00000+0  37873-2 0  9999",
        "tle_line2": "2 36012  86.4407 305.5764 0211377 247.5973 110.2701 14.19148234655534"
      },
      "geometry": {
        "type": "Point",
        "coordinates": [
          115.7002775219961,
          69.16343753963032
        ]
      }
    },
    {
      "type": "Feature",
      "properties": {
        "norad_id": 36028,
        "name": "IRIDIUM 33 DEB",
        "group": "iridium-33-debris",
        "lat": 42.155383833572884,
        "lon": -52.7871408178483,
        "alt_km": 562.8051813877846,
        "timestamp": "2025-12-18T17:50:15.340680+00:00",
        "meta_object_name": "IRIDIUM 33 DEB",
        "meta_object_id": "1997-051VK",
        "meta_epoch": "2025-12-18T03:11:51.567936",
        "meta_mean_motion": 14.95550409,
        "meta_eccentricity": 0.00209881,
        "meta_inclination": 86.3211,
        "meta_ra_of_asc_node": 304.1605,
        "meta_arg_of_pericenter": 36.8927,
        "meta_mean_anomaly": 323.3741,
        "meta_ephemeris_type": 0,
        "meta_classification_type": "U",
        "meta_norad_cat_id": 36028,
        "meta_element_set_no": 999,
        "meta_rev_at_epoch": 87205,
        "meta_bstar": 0.0018079857,
        "meta_mean_motion_dot": 0.00020189,
        "meta_mean_motion_ddot": 0,
        "tle_line1": "1 36028U 97051VK  25352.13323574  .00020189  00000+0  18080-2 0  9994",
        "tle_line2": "2 36028  86.3211 304.1605 0020988  36.8927 323.3741 14.95550409872050"
      },
      "geometry": {
        "type": "Point",
        "coordinates": [
          -52.7871408178483,
          42.155383833572884
        ]
      }
    },
    {
      "type": "Feature",
      "properties": {
        "norad_id": 36080,
        "name": "IRIDIUM 33 DEB",
        "group": "iridium-33-debris",
        "lat": -72.8065099883861,
        "lon": -6.633455473205762,
        "alt_km": 755.4642133763227,
        "timestamp": "2025-12-18T17:50:15.340690+00:00",
        "meta_object_name": "IRIDIUM 33 DEB",
        "meta_object_id": "1997-051VM",
        "meta_epoch": "2025-12-17T07:18:52.852032",
        "meta_mean_motion": 14.4662506,
        "meta_eccentricity": 0.00186257,
        "meta_inclination": 86.3197,
        "meta_ra_of_asc_node": 5.9988,
        "meta_arg_of_pericenter": 142.3309,
        "meta_mean_anomaly": 217.9202,
        "meta_ephemeris_type": 0,
        "meta_classification_type": "U",
        "meta_norad_cat_id": 36080,
        "meta_element_set_no": 999,
        "meta_rev_at_epoch": 47480,
        "meta_bstar": 0.00046202765,
        "meta_mean_motion_dot": 1.69e-05,
        "meta_mean_motion_ddot": 0,
        "tle_line1": "1 36080U 97051VM  25351.30477838  .00001690  00000+0  46203-3 0  9998",
        "tle_line2": "2 36080  86.3197   5.9988 0018625 142.3309 217.9202 14.46625060474806"
      },
      "geometry": {
        "type": "Point",
        "coordinates": [
          -6.633455473205762,
          -72.8065099883861
        ]
      }
    }
  ]
}